IRIDIUM 63              
1 25286U 98021B   25330.60836362  .00000477  00000+0  15542-3 0  9997
2 25286  86.3999  13.9831 0002396  95.0815 265.0656 14.36717498447164
IRIDIUM 69              
1 25319U 98026A   25330.67646006  .00000684  00000+0  20595-3 0  9994
2 25319  86.3995  26.7285 0002537 155.0309 205.1014 14.41191699446464
IRIDIUM 71              
1 25320U 98026B   25330.66441941  .00000376  00000+0  11025-3 0  9992
2 25320  86.3994  21.4079 0000131 141.0249 219.0960 14.41304028446998
IRIDIUM 73              
1 25344U 98032C   25330.51464822  .00000795  00000+0  19203-3 0  9993
2 25344  86.4405 337.8867 0002561 105.5856 254.5632 14.51956939454117
IRIDIUM 82              
1 25467U 98051A   25330.65745882  .00042904  00000+0  83729-3 0  9995
2 25467  86.3629  29.1921 0065476  37.3432 323.2348 15.44936147448919
